[{"OBJECT_NAME":"SWARM B","OBJECT_ID":"2013-067A","EPOCH":"2026-03-09T22:20:48.706656","MEAN_MOTION":15.27862638,"ECCENTRICITY":0.00036996,"INCLINATION":87.749,"RA_OF_ASC_NODE":12.4162,"ARG_OF_PERICENTER":86.3179,"MEAN_ANOMALY":273.8493,"EPHEMERIS_TYPE":0,"CLASSIFICATION_TYPE":"U","NORAD_CAT_ID":39451,"ELEMENT_SET_NO":999,"REV_AT_EPOCH":66808,"BSTAR":0.00020534236,"MEAN_MOTION_DOT":5.616e-5,"MEAN_MOTION_DDOT":0},{"OBJECT_NAME":"STARLINK-30610","OBJECT_ID":"2023-160H","EPOCH":"2026-03-09T08:25:37.409952","MEAN_MOTION":15.2673357,"ECCENTRICITY":0.0001438,"INCLINATION":43.0023,"RA_OF_ASC_NODE":79.8267,"ARG_OF_PERICENTER":246.9548,"MEAN_ANOMALY":113.1152,"EPHEMERIS_TYPE":0,"CLASSIFICATION_TYPE":"U","NORAD_CAT_ID":58082,"ELEMENT_SET_NO":999,"REV_AT_EPOCH":13289,"BSTAR":-7.0759291e-5,"MEAN_MOTION_DOT":-2.157e-5,"MEAN_MOTION_DDOT":0}]
